NANOSATC-BR1            
1 40024U 14033Q   26068.98267556  .00020336  00000+0  74295-3 0  9994
2 40024  98.0845  92.7804 0004644 147.6715 212.4808 15.28136801638811
STARLINK-36539          
1 67446U 26008B   26068.40715567  .00026294  00000+0  96122-3 0  9995
2 67446  43.0027 207.2864 0004048 291.8800  68.1621 15.27589101  9527
