[{"OBJECT_NAME":"NANOSATC-BR1","OBJECT_ID":"2014-033Q","EPOCH":"2026-03-09T23:35:03.168384","MEAN_MOTION":15.28136801,"ECCENTRICITY":0.00046435,"INCLINATION":98.0845,"RA_OF_ASC_NODE":92.7804,"ARG_OF_PERICENTER":147.6715,"MEAN_ANOMALY":212.4808,"EPHEMERIS_TYPE":0,"CLASSIFICATION_TYPE":"U","NORAD_CAT_ID":40024,"ELEMENT_SET_NO":999,"REV_AT_EPOCH":63881,"BSTAR":0.00074295057,"MEAN_MOTION_DOT":0.00020336,"MEAN_MOTION_DDOT":0},{"OBJECT_NAME":"STARLINK-36539","OBJECT_ID":"2026-008B","EPOCH":"2026-03-09T09:46:18.249888","MEAN_MOTION":15.27589101,"ECCENTRICITY":0.00040482,"INCLINATION":43.0027,"RA_OF_ASC_NODE":207.2864,"ARG_OF_PERICENTER":291.88,"MEAN_ANOMALY":68.1621,"EPHEMERIS_TYPE":0,"CLASSIFICATION_TYPE":"U","NORAD_CAT_ID":67446,"ELEMENT_SET_NO":999,"REV_AT_EPOCH":952,"BSTAR":0.00096121986,"MEAN_MOTION_DOT":0.00026294,"MEAN_MOTION_DDOT":0}]
